{
  "type": "FeatureCollection",
  "features": [
    {
      "type": "Feature",
      "properties": {
        "norad_id": 66482,
        "name": "STARLINK-35648",
        "group": "last-30-days",
        "lat": 37.81580247520386,
        "lon": -178.29664602886265,
        "alt_km": 408.86512805066104,
        "timestamp": "2025-12-14T22:38:39.515965+00:00",
        "meta_object_name": "STARLINK-35648",
        "meta_object_id": "2025-262AC",
        "meta_epoch": "2025-12-13T12:08:21.572736",
        "meta_mean_motion": 15.50603373,
        "meta_eccentricity": 0.00010524,
        "meta_inclination": 42.9975,
        "meta_ra_of_asc_node": 66.5208,
        "meta_arg_of_pericenter": 275.6037,
        "meta_mean_anomaly": 84.4703,
        "meta_ephemeris_type": 0,
        "meta_classification_type": "U",
        "meta_norad_cat_id": 66482,
        "meta_element_set_no": 999,
        "meta_rev_at_epoch": 552,
        "meta_bstar": 0.0015071759,
        "meta_mean_motion_dot": 0.00089167,
        "meta_mean_motion_ddot": 0,
        "tle_line1": "1 66482U 25262AC  25347.50580524  .00089167  00000+0  15072-2 0  9990",
        "tle_line2": "2 66482  42.9975  66.5208 0001052 275.6037  84.4703 15.50603373  5520"
      },
      "geometry": {
        "type": "Point",
        "coordinates": [
          -178.29664602886265,
          37.81580247520386
        ]
      }
    },
    {
      "type": "Feature",
      "properties": {
        "norad_id": 66483,
        "name": "STARLINK-35654",
        "group": "last-30-days",
        "lat": 37.50003525912796,
        "lon": -177.33366309777176,
        "alt_km": 409.403928653147,
        "timestamp": "2025-12-14T22:38:39.515975+00:00",
        "meta_object_name": "STARLINK-35654",
        "meta_object_id": "2025-262AD",
        "meta_epoch": "2025-12-14T05:08:15.077760",
        "meta_mean_motion": 15.50498721,
        "meta_eccentricity": 0.00032862,
        "meta_inclination": 42.9973,
        "meta_ra_of_asc_node": 62.3734,
        "meta_arg_of_pericenter": 214.0284,
        "meta_mean_anomaly": 146.0365,
        "meta_ephemeris_type": 0,
        "meta_classification_type": "U",
        "meta_norad_cat_id": 66483,
        "meta_element_set_no": 999,
        "meta_rev_at_epoch": 579,
        "meta_bstar": 0.0014614034,
        "meta_mean_motion_dot": 0.00086104,
        "meta_mean_motion_ddot": 0,
        "tle_line1": "1 66483U 25262AD  25348.21406340  .00086104  00000+0  14614-2 0  9992",
        "tle_line2": "2 66483  42.9973  62.3734 0003286 214.0284 146.0365 15.50498721  5796"
      },
      "geometry": {
        "type": "Point",
        "coordinates": [
          -177.33366309777176,
          37.50003525912796
        ]
      }
    },
    {
      "type": "Feature",
      "properties": {
        "norad_id": 66484,
        "name": "STARLINK-35371",
        "group": "last-30-days",
        "lat": 36.61611539286726,
        "lon": -174.78114064735914,
        "alt_km": 410.1050707188024,
        "timestamp": "2025-12-14T22:38:39.515986+00:00",
        "meta_object_name": "STARLINK-35371",
        "meta_object_id": "2025-262AE",
        "meta_epoch": "2025-12-12T16:01:32.219328",
        "meta_mean_motion": 15.50574998,
        "meta_eccentricity": 0.00014167,
        "meta_inclination": 43.0018,
        "meta_ra_of_asc_node": 71.4158,
        "meta_arg_of_pericenter": 278.2184,
        "meta_mean_anomaly": 81.8515,
        "meta_ephemeris_type": 0,
        "meta_classification_type": "U",
        "meta_norad_cat_id": 66484,
        "meta_element_set_no": 999,
        "meta_rev_at_epoch": 555,
        "meta_bstar": 7.4960958e-05,
        "meta_mean_motion_dot": 4.058e-05,
        "meta_mean_motion_ddot": 0,
        "tle_line1": "1 66484U 25262AE  25346.66773402  .00004058  00000+0  74961-4 0  9997",
        "tle_line2": "2 66484  43.0018  71.4158 0001416 278.2184  81.8515 15.50574998  5552"
      },
      "geometry": {
        "type": "Point",
        "coordinates": [
          -174.78114064735914,
          36.61611539286726
        ]
      }
    },
    {
      "type": "Feature",
      "properties": {
        "norad_id": 66485,
        "name": "STARLINK-34774",
        "group": "last-30-days",
        "lat": -1.1517013438192458,
        "lon": -66.04985903682102,
        "alt_km": 444.1901221530643,
        "timestamp": "2025-12-14T22:38:39.515996+00:00",
        "meta_object_name": "STARLINK-34774",
        "meta_object_id": "2025-263A",
        "meta_epoch": "2025-12-14T01:38:02.194080",
        "meta_mean_motion": 15.40689642,
        "meta_eccentricity": 0.00014296,
        "meta_inclination": 43.0009,
        "meta_ra_of_asc_node": 117.7603,
        "meta_arg_of_pericenter": 303.4001,
        "meta_mean_anomaly": 56.6718,
        "meta_ephemeris_type": 0,
        "meta_classification_type": "U",
        "meta_norad_cat_id": 66485,
        "meta_element_set_no": 999,
        "meta_rev_at_epoch": 576,
        "meta_bstar": 0.0017871736,
        "meta_mean_motion_dot": 0.00075063,
        "meta_mean_motion_ddot": 0,
        "tle_line1": "1 66485U 25263A   25348.06808095  .00075063  00000+0  17872-2 0  9992",
        "tle_line2": "2 66485  43.0009 117.7603 0001429 303.4001  56.6718 15.40689642  5765"
      },
      "geometry": {
        "type": "Point",
        "coordinates": [
          -66.04985903682102,
          -1.1517013438192458
        ]
      }
    },
    {
      "type": "Feature",
      "properties": {
        "norad_id": 66486,
        "name": "STARLINK-34844",
        "group": "last-30-days",
        "lat": 0.12618765694479966,
        "lon": 112.41475706391518,
        "alt_km": 413.4616131740722,
        "timestamp": "2025-12-14T22:38:39.516006+00:00",
        "meta_object_name": "STARLINK-34844",
        "meta_object_id": "2025-263B",
        "meta_epoch": "2025-12-13T18:48:59.664960",
        "meta_mean_motion": 15.50521682,
        "meta_eccentricity": 0.00040201,
        "meta_inclination": 43.0013,
        "meta_ra_of_asc_node": 119.0631,
        "meta_arg_of_pericenter": 285.7981,
        "meta_mean_anomaly": 74.2436,
        "meta_ephemeris_type": 0,
        "meta_classification_type": "U",
        "meta_norad_cat_id": 66486,
        "meta_element_set_no": 999,
        "meta_rev_at_epoch": 567,
        "meta_bstar": 0.0010716993,
        "meta_mean_motion_dot": 0.00062922,
        "meta_mean_motion_ddot": 0,
        "tle_line1": "1 66486U 25263B   25347.78402390  .00062922  00000+0  10717-2 0  9990",
        "tle_line2": "2 66486  43.0013 119.0631 0004020 285.7981  74.2436 15.50521682  5679"
      },
      "geometry": {
        "type": "Point",
        "coordinates": [
          112.41475706391518,
          0.12618765694479966
        ]
      }
    },
    {
      "type": "Feature",
      "properties": {
        "norad_id": 66487,
        "name": "STARLINK-34733",
        "group": "last-30-days",
        "lat": -42.962885180984514,
        "lon": 20.56411601537683,
        "alt_km": 446.1670071383287,
        "timestamp": "2025-12-14T22:38:39.516016+00:00",
        "meta_object_name": "STARLINK-34733",
        "meta_object_id": "2025-263C",
        "meta_epoch": "2025-12-14T06:00:02.999808",
        "meta_mean_motion": 15.40641824,
        "meta_eccentricity": 0.00014774,
        "meta_inclination": 42.9995,
        "meta_ra_of_asc_node": 116.499,
        "meta_arg_of_pericenter": 259.9774,
        "meta_mean_anomaly": 117.6057,
        "meta_ephemeris_type": 0,
        "meta_classification_type": "U",
        "meta_norad_cat_id": 66487,
        "meta_element_set_no": 999,
        "meta_rev_at_epoch": 587,
        "meta_bstar": 0.0024810724,
        "meta_mean_motion_dot": 0.00104566,
        "meta_mean_motion_ddot": 0,
        "tle_line1": "1 66487U 25263C   25348.25003472  .00104566  00000+0  24811-2 0  9993",
        "tle_line2": "2 66487  42.9995 116.4990 0001477 259.9774 117.6057 15.40641824  5875"
      },
      "geometry": {
        "type": "Point",
        "coordinates": [
          20.56411601537683,
          -42.962885180984514
        ]
      }
    },
    {
      "type": "Feature",
      "properties": {
        "norad_id": 66488,
        "name": "STARLINK-35515",
        "group": "last-30-days",
        "lat": 2.891141290288403,
        "lon": 115.37582105265977,
        "alt_km": 412.8734304276986,
        "timestamp": "2025-12-14T22:38:39.516026+00:00",
        "meta_object_name": "STARLINK-35515",
        "meta_object_id": "2025-263D",
        "meta_epoch": "2025-12-14T08:42:49.337856",
        "meta_mean_motion": 15.5064861,
        "meta_eccentricity": 0.00056329,
        "meta_inclination": 42.9997,
        "meta_ra_of_asc_node": 115.6657,
        "meta_arg_of_pericenter": 285.0725,
        "meta_mean_anomaly": 74.9512,
        "meta_ephemeris_type": 0,
        "meta_classification_type": "U",
        "meta_norad_cat_id": 66488,
        "meta_element_set_no": 999,
        "meta_rev_at_epoch": 581,
        "meta_bstar": 0.0019213759,
        "meta_mean_motion_dot": 0.00114374,
        "meta_mean_motion_ddot": 0,
        "tle_line1": "1 66488U 25263D   25348.36307104  .00114374  00000+0  19214-2 0  9994",
        "tle_line2": "2 66488  42.9997 115.6657 0005632 285.0725  74.9512 15.50648610  5818"
      },
      "geometry": {
        "type": "Point",
        "coordinates": [
          115.37582105265977,
          2.891141290288403
        ]
      }
    }
  ]
}